GLOBALSTAR M067 [+]     
1 32263U 07048A   24079.88073764 -.00000064  00000+0  25047-3 0  9991
2 32263  51.9717 285.2377 0001753  91.3857  10.7814 12.40639979753333
GLOBALSTAR M070 [+]     
1 32264U 07048B   24079.41786569 -.00000085  00000+0  10384-3 0  9996
2 32264  51.9748  73.8786 0000444 137.6273  26.7538 12.62288188756233
GLOBALSTAR M066 [+]     
1 32265U 07048C   24079.91845899 -.00000049  00000+0  30644-3 0  9995
2 32265  51.9671 294.3566 0001275  64.6131  40.7594 12.62257847759509
GLOBALSTAR M068 [-]     
1 32266U 07048D   24079.75976021 -.00000057  00000+0  26047-3 0  9991
2 32266  51.9869 247.4553 0000899 156.9243 311.1181 12.62782213760435
GLOBALSTAR M079 [+]     
1 37188U 10054A   24080.47618197 -.00000085  00000+0  10516-3 0  9993
2 37188  52.0032  80.9535 0000480  64.6404 103.8229 12.62267460619835
GLOBALSTAR M074 [+]     
1 37189U 10054B   24080.33047796 -.00000094  00000+0  52304-4 0  9992
2 37189  52.0009  80.7904 0000349  98.8030   6.7260 12.62266221619814
GLOBALSTAR M076 [+]     
1 37190U 10054C   24080.19295856 -.00000088  00000+0  89686-4 0  9996
2 37190  52.0021  81.3393 0000863  92.6361 347.4993 12.62275640619801
GLOBALSTAR M077 [+]     
1 37191U 10054D   24079.32735712 -.00000097  00000+0  35472-4 0  9994
2 37191  52.0089  40.6993 0000458  88.5367  75.8381 12.62270194619701
